[{"OBJECT_NAME":"CBERS 4","OBJECT_ID":"2014-079A","EPOCH":"2026-03-09T23:48:34.091136","MEAN_MOTION":14.35413289,"ECCENTRICITY":6.249e-5,"INCLINATION":98.3477,"RA_OF_ASC_NODE":128.9942,"ARG_OF_PERICENTER":63.727,"MEAN_ANOMALY":296.398,"EPHEMERIS_TYPE":0,"CLASSIFICATION_TYPE":"U","NORAD_CAT_ID":40336,"ELEMENT_SET_NO":999,"REV_AT_EPOCH":58972,"BSTAR":4.6050106e-5,"MEAN_MOTION_DOT":9.0e-7,"MEAN_MOTION_DDOT":0},{"OBJECT_NAME":"SL-3 DEB","OBJECT_ID":"1983-109C","EPOCH":"2026-03-09T08:16:26.499360","MEAN_MOTION":14.26382205,"ECCENTRICITY":0.00950741,"INCLINATION":81.1597,"RA_OF_ASC_NODE":106.9937,"ARG_OF_PERICENTER":153.1797,"MEAN_ANOMALY":338.958,"EPHEMERIS_TYPE":0,"CLASSIFICATION_TYPE":"U","NORAD_CAT_ID":14454,"ELEMENT_SET_NO":999,"REV_AT_EPOCH":20273,"BSTAR":4.7737064e-5,"MEAN_MOTION_DOT":1.34e-6,"MEAN_MOTION_DDOT":0}]
